*******************************************************************************
Ephemeris / WWW_USER Thu May 23 17:15:57 2024 Pasadena, USA      / Horizons    
*******************************************************************************
Target body name: (2018 YU2)                      {source: JPL#5}
Center body name: Earth (399)                     {source: DE441}
Center-site name: Gemini South Obs., Cerro Pachon
*******************************************************************************
Start time      : A.D. 2018-Sep-09 22:40:00.0000 UT      
Stop  time      : A.D. 2018-Sep-10 10:39:00.0000 UT      
Step-size       : 1 minutes
*******************************************************************************
Target pole/equ : undefined
Target radii    : undefined                                                    
Center geodetic : 289.2634, -30.2406227, 2.71233  {E-lon(deg),Lat(deg),Alt(km)}
Center cylindric: 289.2634,5517.21435,-3194.81213 {E-lon(deg),Dxy(km),Dz(km)}
Center pole/equ : ITRF93                          {East-longitude positive}
Center radii    : 6378.137, 6378.137, 6356.752 km {Equator_a, b, pole_c}       
Target primary  : Sun
Vis. interferer : MOON (R_eq= 1737.400) km        {source: DE441}
Rel. light bend : Sun                             {source: DE441}
Rel. lght bnd GM: 1.3271E+11 km^3/s^2                                          
Small-body perts: Yes                             {source: SB441-N16}
Atmos refraction: NO (AIRLESS)
RA format       : HMS
Time format     : CAL 
Calendar mode   : Mixed Julian/Gregorian
RTS-only print  : NO       
EOP file        : eop.240523.p240816                                           
EOP coverage    : DATA-BASED 1962-JAN-20 TO 2024-MAY-23. PREDICTS-> 2024-AUG-15
Units conversion: 1 au= 149597870.700 km, c= 299792.458 km/s, 1 day= 86400.0 s 
Table cut-offs 1: Elevation (-90.0deg=NO ),Airmass (>38.000=NO), Daylight (YES)
Table cut-offs 2: Solar elongation (  0.0,180.0=NO ),Local Hour Angle( 0.0=NO )
Table cut-offs 3: RA/DEC angular rate (     0.0=NO )                           
*******************************************************************************
Initial IAU76/J2000 heliocentric ecliptic osculating elements (au, days, deg.):
  EPOCH=  2458477.5 ! 2018-Dec-25.00 (TDB)         Residual RMS= .22887        
   EC= .1533598773405833   QR= .920984914841031    TP= 2458549.1486254167      
   OM= 279.4515303175068   W=  253.4059234937716   IN= 2.850769624588425       
  Equivalent ICRF heliocentric cartesian coordinates (au, au/d):
   X=-6.842297687009524E-02  Y= 9.429126817220428E-01  Z= 4.143187104036840E-01
  VX=-1.695115058702848E-02 VY=-2.997207899955317E-03 VZ=-2.239432528215744E-03
Asteroid physical parameters (km, seconds, rotational period in hours):        
   GM= n.a.                RAD= n.a.               ROTPER= n.a.                
   H= 26.5                 G= .150                 B-V= n.a.                   
                           ALBEDO= n.a.            STYP= n.a.                  
*******************************************************************************
 Date__(UT)__HR:MN     R.A._________(ICRF)_________DEC
******************************************************
$$SOE
 2018-Sep-10 04:49     04 05 05.965348 +27 29 33.73012
 2018-Sep-10 04:50     04 05 06.067095 +27 29 34.18590
 2018-Sep-10 04:51     04 05 06.168824 +27 29 34.64164
 2018-Sep-10 04:52     04 05 06.270533 +27 29 35.09733
 2018-Sep-10 04:53     04 05 06.372224 +27 29 35.55298
 2018-Sep-10 04:54     04 05 06.473895 +27 29 36.00858
 2018-Sep-10 04:55     04 05 06.575547 +27 29 36.46414
 2018-Sep-10 04:56     04 05 06.677181 +27 29 36.91964
 2018-Sep-10 04:57     04 05 06.778795 +27 29 37.37510
 2018-Sep-10 04:58     04 05 06.880390 +27 29 37.83051
 2018-Sep-10 04:59     04 05 06.981967 +27 29 38.28588
 2018-Sep-10 05:00     04 05 07.083525 +27 29 38.74119
 2018-Sep-10 05:01     04 05 07.185064 +27 29 39.19645
 2018-Sep-10 05:02     04 05 07.286584 +27 29 39.65166
 2018-Sep-10 05:03     04 05 07.388085 +27 29 40.10683
 2018-Sep-10 05:04     04 05 07.489568 +27 29 40.56194
 2018-Sep-10 05:05     04 05 07.591032 +27 29 41.01699
 2018-Sep-10 05:06     04 05 07.692477 +27 29 41.47200
 2018-Sep-10 05:07     04 05 07.793904 +27 29 41.92695
 2018-Sep-10 05:08     04 05 07.895312 +27 29 42.38185
 2018-Sep-10 05:09     04 05 07.996702 +27 29 42.83670
 2018-Sep-10 05:10     04 05 08.098073 +27 29 43.29149
 2018-Sep-10 05:11     04 05 08.199426 +27 29 43.74622
 2018-Sep-10 05:12     04 05 08.300760 +27 29 44.20090
 2018-Sep-10 05:13     04 05 08.402076 +27 29 44.65553
 2018-Sep-10 05:14     04 05 08.503373 +27 29 45.11010
 2018-Sep-10 05:15     04 05 08.604652 +27 29 45.56461
 2018-Sep-10 05:16     04 05 08.705913 +27 29 46.01906
 2018-Sep-10 05:17     04 05 08.807156 +27 29 46.47346
 2018-Sep-10 05:18     04 05 08.908380 +27 29 46.92779
 2018-Sep-10 05:19     04 05 09.009586 +27 29 47.38207
 2018-Sep-10 05:20     04 05 09.110775 +27 29 47.83629
 2018-Sep-10 05:21     04 05 09.211945 +27 29 48.29045
 2018-Sep-10 05:22     04 05 09.313096 +27 29 48.74455
 2018-Sep-10 05:23     04 05 09.414230 +27 29 49.19859
 2018-Sep-10 05:24     04 05 09.515346 +27 29 49.65257
 2018-Sep-10 05:25     04 05 09.616444 +27 29 50.10648
 2018-Sep-10 05:26     04 05 09.717524 +27 29 50.56034
 2018-Sep-10 05:27     04 05 09.818587 +27 29 51.01413
 2018-Sep-10 05:28     04 05 09.919631 +27 29 51.46785
 2018-Sep-10 05:29     04 05 10.020658 +27 29 51.92152
 2018-Sep-10 05:30     04 05 10.121667 +27 29 52.37512
 2018-Sep-10 05:31     04 05 10.222658 +27 29 52.82865
 2018-Sep-10 05:32     04 05 10.323632 +27 29 53.28212
 2018-Sep-10 05:33     04 05 10.424588 +27 29 53.73553
 2018-Sep-10 05:34     04 05 10.525526 +27 29 54.18886
 2018-Sep-10 05:35     04 05 10.626447 +27 29 54.64214
 2018-Sep-10 05:36     04 05 10.727351 +27 29 55.09534
 2018-Sep-10 05:37     04 05 10.828237 +27 29 55.54848
 2018-Sep-10 05:38     04 05 10.929105 +27 29 56.00155
 2018-Sep-10 05:39     04 05 11.029957 +27 29 56.45455
 2018-Sep-10 05:40     04 05 11.130791 +27 29 56.90748
 2018-Sep-10 05:41     04 05 11.231608 +27 29 57.36034
 2018-Sep-10 05:42     04 05 11.332407 +27 29 57.81314
 2018-Sep-10 05:43     04 05 11.433190 +27 29 58.26586
 2018-Sep-10 05:44     04 05 11.533955 +27 29 58.71851
 2018-Sep-10 05:45     04 05 11.634704 +27 29 59.17109
 2018-Sep-10 05:46     04 05 11.735435 +27 29 59.62360
 2018-Sep-10 05:47     04 05 11.836150 +27 30 00.07604
 2018-Sep-10 05:48     04 05 11.936847 +27 30 00.52840
 2018-Sep-10 05:49     04 05 12.037528 +27 30 00.98070
 2018-Sep-10 05:50     04 05 12.138192 +27 30 01.43291
 2018-Sep-10 05:51     04 05 12.238839 +27 30 01.88506
 2018-Sep-10 05:52     04 05 12.339469 +27 30 02.33713
 2018-Sep-10 05:53     04 05 12.440083 +27 30 02.78913
 2018-Sep-10 05:54     04 05 12.540680 +27 30 03.24105
 2018-Sep-10 05:55     04 05 12.641260 +27 30 03.69289
 2018-Sep-10 05:56     04 05 12.741824 +27 30 04.14466
 2018-Sep-10 05:57     04 05 12.842372 +27 30 04.59635
 2018-Sep-10 05:58     04 05 12.942903 +27 30 05.04797
 2018-Sep-10 05:59     04 05 13.043418 +27 30 05.49950
 2018-Sep-10 06:00     04 05 13.143917 +27 30 05.95096
 2018-Sep-10 06:01     04 05 13.244399 +27 30 06.40235
 2018-Sep-10 06:02     04 05 13.344865 +27 30 06.85365
 2018-Sep-10 06:03     04 05 13.445315 +27 30 07.30487
 2018-Sep-10 06:04     04 05 13.545749 +27 30 07.75602
 2018-Sep-10 06:05     04 05 13.646167 +27 30 08.20708
 2018-Sep-10 06:06     04 05 13.746568 +27 30 08.65806
 2018-Sep-10 06:07     04 05 13.846954 +27 30 09.10897
 2018-Sep-10 06:08     04 05 13.947324 +27 30 09.55979
 2018-Sep-10 06:09     04 05 14.047679 +27 30 10.01053
 2018-Sep-10 06:10     04 05 14.148017 +27 30 10.46119
 2018-Sep-10 06:11     04 05 14.248340 +27 30 10.91176
 2018-Sep-10 06:12     04 05 14.348647 +27 30 11.36225
 2018-Sep-10 06:13     04 05 14.448938 +27 30 11.81266
 2018-Sep-10 06:14     04 05 14.549214 +27 30 12.26299
 2018-Sep-10 06:15     04 05 14.649475 +27 30 12.71323
 2018-Sep-10 06:16     04 05 14.749720 +27 30 13.16338
 2018-Sep-10 06:17     04 05 14.849949 +27 30 13.61345
 2018-Sep-10 06:18     04 05 14.950164 +27 30 14.06344
 2018-Sep-10 06:19     04 05 15.050363 +27 30 14.51334
 2018-Sep-10 06:20     04 05 15.150547 +27 30 14.96315
 2018-Sep-10 06:21     04 05 15.250716 +27 30 15.41288
 2018-Sep-10 06:22     04 05 15.350869 +27 30 15.86252
 2018-Sep-10 06:23     04 05 15.451008 +27 30 16.31207
 2018-Sep-10 06:24     04 05 15.551132 +27 30 16.76153
 2018-Sep-10 06:25     04 05 15.651241 +27 30 17.21091
 2018-Sep-10 06:26     04 05 15.751335 +27 30 17.66020
 2018-Sep-10 06:27     04 05 15.851414 +27 30 18.10939
 2018-Sep-10 06:28     04 05 15.951478 +27 30 18.55850
 2018-Sep-10 06:29     04 05 16.051528 +27 30 19.00752
 2018-Sep-10 06:30     04 05 16.151563 +27 30 19.45645
 2018-Sep-10 06:31     04 05 16.251584 +27 30 19.90529
 2018-Sep-10 06:32     04 05 16.351590 +27 30 20.35403
 2018-Sep-10 06:33     04 05 16.451582 +27 30 20.80269
 2018-Sep-10 06:34     04 05 16.551560 +27 30 21.25125
 2018-Sep-10 06:35     04 05 16.651523 +27 30 21.69972
 2018-Sep-10 06:36     04 05 16.751472 +27 30 22.14810
 2018-Sep-10 06:37     04 05 16.851406 +27 30 22.59639
 2018-Sep-10 06:38     04 05 16.951327 +27 30 23.04458
 2018-Sep-10 06:39     04 05 17.051234 +27 30 23.49268
 2018-Sep-10 06:40     04 05 17.151126 +27 30 23.94068
 2018-Sep-10 06:41     04 05 17.251005 +27 30 24.38859
 2018-Sep-10 06:42     04 05 17.350870 +27 30 24.83640
 2018-Sep-10 06:43     04 05 17.450721 +27 30 25.28412
 2018-Sep-10 06:44     04 05 17.550559 +27 30 25.73175
 2018-Sep-10 06:45     04 05 17.650382 +27 30 26.17928
 2018-Sep-10 06:46     04 05 17.750193 +27 30 26.62671
 2018-Sep-10 06:47     04 05 17.849989 +27 30 27.07404
 2018-Sep-10 06:48     04 05 17.949773 +27 30 27.52128
 2018-Sep-10 06:49     04 05 18.049542 +27 30 27.96842
 2018-Sep-10 06:50     04 05 18.149299 +27 30 28.41546
 2018-Sep-10 06:51     04 05 18.249042 +27 30 28.86241
